{"type": "FeatureCollection", "features": [ {"type": "Feature", "properties": {"norad_id": 41774, "name": "SKYSAT-C3", "group": "resource", "lat": 51.73163775055872, "lon": 8.510298768180585, "alt_km": 428.2715346341429, "timestamp": "2025-12-09T11:33:54.457823+00:00", "meta": {"OBJECT_NAME": "SKYSAT-C3", "OBJECT_ID": "2016-058E", "EPOCH": "2025-12-09T02:00:29.665152", "MEAN_MOTION": 15.44198745, "ECCENTRICITY": 0.0001597, "INCLINATION": 96.9299, "RA_OF_ASC_NODE": 17.0002, "ARG_OF_PERICENTER": 104.8504, "MEAN_ANOMALY": 255.2922, "EPHEMERIS_TYPE": 0, "CLASSIFICATION_TYPE": "U", "NORAD_CAT_ID": 41774, "ELEMENT_SET_NO": 999, "REV_AT_EPOCH": 51669, "BSTAR": 0.00047404, "MEAN_MOTION_DOT": 0.00021701, "MEAN_MOTION_DDOT": 0}, "tle": {"line1": "1 41774U 16058E   25343.08367668  .00021701  00000+0  47404-3 0  9996", "line2": "2 41774  96.9299  17.0002 0001597 104.8504 255.2922 15.44198745516695"}}, "geometry": {"type": "Point", "coordinates": [8.510298768180585, 51.73163775055872]}}, {"type": "Feature", "properties": {"norad_id": 41785, "name": "ALSAT 1B", "group": "resource", "lat": 35.91205050082515, "lon": -10.270995423852327, "alt_km": 650.1889237834748, "timestamp": "2025-12-09T11:33:54.457833+00:00", "meta": {"OBJECT_NAME": "ALSAT 1B", "OBJECT_ID": "2016-059C", "EPOCH": "2025-12-09T04:52:31.282176", "MEAN_MOTION": 14.72069586, "ECCENTRICITY": 0.001059, "INCLINATION": 97.781, "RA_OF_ASC_NODE": 355.1453, "ARG_OF_PERICENTER": 113.1271, "MEAN_ANOMALY": 247.1054, "EPHEMERIS_TYPE": 0, "CLASSIFICATION_TYPE": "U", "NORAD_CAT_ID": 41785, "ELEMENT_SET_NO": 999, "REV_AT_EPOCH": 49262, "BSTAR": 0.00011809, "MEAN_MOTION_DOT": 6.96e-06, "MEAN_MOTION_DDOT": 0}, "tle": {"line1": "1 41785U 16059C   25343.20313984  .00000696  00000+0  11809-3 0  9995", "line2": "2 41785  97.7810 355.1453 0010590 113.1271 247.1054 14.72069586492620"}}, "geometry": {"type": "Point", "coordinates": [-10.270995423852327, 35.91205050082515]}}, {"type": "Feature", "properties": {"norad_id": 41787, "name": "PATHFINDER 1", "group": "resource", "lat": 8.67508355552834, "lon": 167.6072140493683, "alt_km": 667.7781025777331, "timestamp": "2025-12-09T11:33:54.457843+00:00", "meta": {"OBJECT_NAME": "PATHFINDER 1", "OBJECT_ID": "2016-059E", "EPOCH": "2025-12-08T23:20:03.761664", "MEAN_MOTION": 14.67309943, "ECCENTRICITY": 0.0030056, "INCLINATION": 97.8138, "RA_OF_ASC_NODE": 345.9207, "ARG_OF_PERICENTER": 92.6206, "MEAN_ANOMALY": 267.844, "EPHEMERIS_TYPE": 0, "CLASSIFICATION_TYPE": "U", "NORAD_CAT_ID": 41787, "ELEMENT_SET_NO": 999, "REV_AT_EPOCH": 49181, "BSTAR": 0.0002191, "MEAN_MOTION_DOT": 1.198e-05, "MEAN_MOTION_DDOT": 0}, "tle": {"line1": "1 41787U 16059E   25342.97226576  .00001198  00000+0  21910-3 0  9992", "line2": "2 41787  97.8138 345.9207 0030056  92.6206 267.8440 14.67309943491814"}}, "geometry": {"type": "Point", "coordinates": [167.6072140493683, 8.67508355552834]}}, {"type": "Feature", "properties": {"norad_id": 41790, "name": "SCATSAT 1", "group": "resource", "lat": 26.29897339207064, "lon": 36.05189747131562, "alt_km": 646.105391796862, "timestamp": "2025-12-09T11:33:54.457853+00:00", "meta": {"OBJECT_NAME": "SCATSAT 1", "OBJECT_ID": "2016-059H", "EPOCH": "2025-12-09T03:19:31.895040", "MEAN_MOTION": 14.78916478, "ECCENTRICITY": 0.005608, "INCLINATION": 98.1466, "RA_OF_ASC_NODE": 39.7639, "ARG_OF_PERICENTER": 139.3888, "MEAN_ANOMALY": 221.1527, "EPHEMERIS_TYPE": 0, "CLASSIFICATION_TYPE": "U", "NORAD_CAT_ID": 41790, "ELEMENT_SET_NO": 999, "REV_AT_EPOCH": 7349, "BSTAR": 0.00029703, "MEAN_MOTION_DOT": 2.192e-05, "MEAN_MOTION_DDOT": 0}, "tle": {"line1": "1 41790U 16059H   25343.13856360  .00002192  00000+0  29703-3 0  9998", "line2": "2 41790  98.1466  39.7639 0056080 139.3888 221.1527 14.78916478 73491"}}, "geometry": {"type": "Point", "coordinates": [36.05189747131562, 26.29897339207064]}}, {"type": "Feature", "properties": {"norad_id": 41875, "name": "GOKTURK 1A", "group": "resource", "lat": -58.073166197149, "lon": -110.8253582495944, "alt_km": 691.9700689242809, "timestamp": "2025-12-09T11:33:54.457863+00:00", "meta": {"OBJECT_NAME": "GOKTURK 1A", "OBJECT_ID": "2016-073A", "EPOCH": "2025-12-09T05:16:03.955008", "MEAN_MOTION": 14.62773914, "ECCENTRICITY": 0.0001278, "INCLINATION": 98.1428, "RA_OF_ASC_NODE": 235.6314, "ARG_OF_PERICENTER": 77.0124, "MEAN_ANOMALY": 283.122, "EPHEMERIS_TYPE": 0, "CLASSIFICATION_TYPE": "U", "NORAD_CAT_ID": 41875, "ELEMENT_SET_NO": 999, "REV_AT_EPOCH": 48105, "BSTAR": 0.00020639, "MEAN_MOTION_DOT": 1.006e-05, "MEAN_MOTION_DDOT": 0}, "tle": {"line1": "1 41875U 16073A   25343.21949022  .00001006  00000+0  20639-3 0  9997", "line2": "2 41875  98.1428 235.6314 0001278  77.0124 283.1220 14.62773914481052"}}, "geometry": {"type": "Point", "coordinates": [-110.8253582495944, -58.073166197149]}}, {"type": "Feature", "properties": {"norad_id": 41877, "name": "RESOURCESAT-2A", "group": "resource", "lat": 66.29871509993481, "lon": -106.04074642069143, "alt_km": 814.2313463314586, "timestamp": "2025-12-09T11:33:54.457873+00:00", "meta": {"OBJECT_NAME": "RESOURCESAT-2A", "OBJECT_ID": "2016-074A", "EPOCH": "2025-12-09T04:16:58.829952", "MEAN_MOTION": 14.21597552, "ECCENTRICITY": 0.0001142, "INCLINATION": 98.7759, "RA_OF_ASC_NODE": 53.055, "ARG_OF_PERICENTER": 273.1549, "MEAN_ANOMALY": 86.9497, "EPHEMERIS_TYPE": 0, "CLASSIFICATION_TYPE": "U", "NORAD_CAT_ID": 41877, "ELEMENT_SET_NO": 999, "REV_AT_EPOCH": 46730, "BSTAR": 0.00018047, "MEAN_MOTION_DOT": 3.51e-06, "MEAN_MOTION_DDOT": 0}, "tle": {"line1": "1 41877U 16074A   25343.17845868  .00000351  00000+0  18047-3 0  9990", "line2": "2 41877  98.7759  53.0550 0001142 273.1549  86.9497 14.21597552467305"}}, "geometry": {"type": "Point", "coordinates": [-106.04074642069143, 66.29871509993481]}}, {"type": "Feature", "properties": {"norad_id": 41948, "name": "CARTOSAT-2D", "group": "resource", "lat": 54.498857180881714, "lon": 30.47369595999429, "alt_km": 504.4824377080977, "timestamp": "2025-12-09T11:33:54.457885+00:00", "meta": {"OBJECT_NAME": "CARTOSAT-2D", "OBJECT_ID": "2017-008A", "EPOCH": "2025-12-09T03:25:08.221728", "MEAN_MOTION": 15.19198782, "ECCENTRICITY": 0.000435, "INCLINATION": 97.439, "RA_OF_ASC_NODE": 40.694, "ARG_OF_PERICENTER": 173.1913, "MEAN_ANOMALY": 186.9382, "EPHEMERIS_TYPE": 0, "CLASSIFICATION_TYPE": "U", "NORAD_CAT_ID": 41948, "ELEMENT_SET_NO": 999, "REV_AT_EPOCH": 48872, "BSTAR": 0.00019657, "MEAN_MOTION_DOT": 4.069e-05, "MEAN_MOTION_DDOT": 0}, "tle": {"line1": "1 41948U 17008A   25343.14245627  .00004069  00000+0  19657-3 0  9999", "line2": "2 41948  97.4390  40.6940 0004350 173.1913 186.9382 15.19198782488727"}}, "geometry": {"type": "Point", "coordinates": [30.47369595999429, 54.498857180881714]}}, {"type": "Feature", "properties": {"norad_id": 42063, "name": "SENTINEL-2B", "group": "resource", "lat": -27.04678063576792, "lon": 60.38994206199497, "alt_km": 795.1392517513068, "timestamp": "2025-12-09T11:33:54.457895+00:00", "meta": {"OBJECT_NAME": "SENTINEL-2B", "OBJECT_ID": "2017-013A", "EPOCH": "2025-12-09T04:58:46.212384", "MEAN_MOTION": 14.30813065, "ECCENTRICITY": 0.0001126, "INCLINATION": 98.5718, "RA_OF_ASC_NODE": 55.7029, "ARG_OF_PERICENTER": 95.1336, "MEAN_ANOMALY": 264.9975, "EPHEMERIS_TYPE": 0, "CLASSIFICATION_TYPE": "U", "NORAD_CAT_ID": 42063, "ELEMENT_SET_NO": 999, "REV_AT_EPOCH": 45747, "BSTAR": 2.5977e-06, "MEAN_MOTION_DOT": -3.7e-07, "MEAN_MOTION_DDOT": 0}, "tle": {"line1": "1 42063U 17013A   25343.20747931 -.00000037  00000+0  25977-5 0  9992", "line2": "2 42063  98.5718  55.7029 0001126  95.1336 264.9975 14.30813065457470"}}, "geometry": {"type": "Point", "coordinates": [60.38994206199497, -27.04678063576792]}}, {"type": "Feature", "properties": {"norad_id": 42767, "name": "CARTOSAT-2E", "group": "resource", "lat": -33.79032984224699, "lon": 46.138094215266925, "alt_km": 513.8120082190326, "timestamp": "2025-12-09T11:33:54.457905+00:00", "meta": {"OBJECT_NAME": "CARTOSAT-2E", "OBJECT_ID": "2017-036C", "EPOCH": "2025-12-09T03:48:41.056128", "MEAN_MOTION": 15.19263445, "ECCENTRICITY": 0.000238, "INCLINATION": 97.4558, "RA_OF_ASC_NODE": 40.7915, "ARG_OF_PERICENTER": 255.1174, "MEAN_ANOMALY": 104.9797, "EPHEMERIS_TYPE": 0, "CLASSIFICATION_TYPE": "U", "NORAD_CAT_ID": 42767, "ELEMENT_SET_NO": 999, "REV_AT_EPOCH": 46929, "BSTAR": 0.00021093, "MEAN_MOTION_DOT": 4.379e-05, "MEAN_MOTION_DDOT": 0}, "tle": {"line1": "1 42767U 17036C   25343.15880852  .00004379  00000+0  21093-3 0  9997", "line2": "2 42767  97.4558  40.7915 0002380 255.1174 104.9797 15.19263445469297"}}, "geometry": {"type": "Point", "coordinates": [46.138094215266925, -33.79032984224699]}}, {"type": "Feature", "properties": {"norad_id": 42920, "name": "FORMOSAT-5", "group": "resource", "lat": 78.15398551220855, "lon": -78.39765677943376, "alt_km": 721.3391632001303, "timestamp": "2025-12-09T11:33:54.457916+00:00", "meta": {"OBJECT_NAME": "FORMOSAT-5", "OBJECT_ID": "2017-049A", "EPOCH": "2025-12-09T04:29:33.392256", "MEAN_MOTION": 14.51001878, "ECCENTRICITY": 0.001003, "INCLINATION": 98.2456, "RA_OF_ASC_NODE": 57.5766, "ARG_OF_PERICENTER": 307.5764, "MEAN_ANOMALY": 52.4519, "EPHEMERIS_TYPE": 0, "CLASSIFICATION_TYPE": "U", "NORAD_CAT_ID": 42920, "ELEMENT_SET_NO": 999, "REV_AT_EPOCH": 43912, "BSTAR": 0.00011169, "MEAN_MOTION_DOT": 3.98e-06, "MEAN_MOTION_DDOT": 0}, "tle": {"line1": "1 42920U 17049A   25343.18719204  .00000398  00000+0  11169-3 0  9997", "line2": "2 42920  98.2456  57.5766 0010030 307.5764  52.4519 14.51001878439125"}}, "geometry": {"type": "Point", "coordinates": [-78.39765677943376, 78.15398551220855]}}]}